start=new Date('2022-07-27T00:00:00.000Z').valueOf();
sats=[{"BSTAR":"0.00017968000000","REV_AT_EPOCH":"8471","SEMIMAJOR_AXIS":"6925.344","TLE_LINE2":"2 47375  53.0529 237.2032 0001525  63.4667 296.6478 15.06401609 84710","RCS_SIZE":"LARGE","RA_OF_ASC_NODE":"237.2032","TIME_SYSTEM":"UTC","FILE":"3522338","GP_ID":"208905082","APOAPSIS":"548.265","MEAN_ELEMENT_THEORY":"SGP4","ELEMENT_SET_NO":"999","TLE_LINE1":"1 47375U 21005AC  22207.49079424  .00002396  00000-0  17968-3 0  9990","MEAN_ANOMALY":"296.6478","EPOCH":"2022-07-26T11:46:44.622336","DECAY_DATE":null,"PERIAPSIS":"546.153","PERIOD":"95.592","NORAD_CAT_ID":"47375","MEAN_MOTION_DOT":"0.00002396","REF_FRAME":"TEME","INCLINATION":"53.0529","COUNTRY_CODE":"US","OBJECT_NAME":"STARLINK-2094","OBJECT_ID":"2021-005AC","ECCENTRICITY":"0.00015250","ARG_OF_PERICENTER":"63.4667","MEAN_MOTION":"15.06401609","LAUNCH_DATE":"2021-01-20","SITE":"AFETR","MEAN_MOTION_DDOT":"0.0000000000000","CENTER_NAME":"EARTH","OBJECT_TYPE":"PAYLOAD","CLASSIFICATION_TYPE":"U","EPHEMERIS_TYPE":"0"},{"TLE_LINE1":"1 47376U 21005AD  22207.49449724 -.00000486  00000-0 -13733-4 0  9992","ELEMENT_SET_NO":"999","MEAN_ANOMALY":"298.9200","DECAY_DATE":null,"EPOCH":"2022-07-26T11:52:04.561536","PERIOD":"95.593","NORAD_CAT_ID":"47376","PERIAPSIS":"546.232","TLE_LINE2":"2 47376  53.0538 237.1865 0001459  61.1935 298.9200 15.06390618 83751","SEMIMAJOR_AXIS":"6925.377","BSTAR":"-0.00001373300000","REV_AT_EPOCH":"8375","GP_ID":"208897996","APOAPSIS":"548.253","RCS_SIZE":"LARGE","RA_OF_ASC_NODE":"237.1865","FILE":"3522226","TIME_SYSTEM":"UTC","MEAN_ELEMENT_THEORY":"SGP4","MEAN_MOTION_DDOT":"0.0000000000000","SITE":"AFETR","LAUNCH_DATE":"2021-01-20","CENTER_NAME":"EARTH","EPHEMERIS_TYPE":"0","CLASSIFICATION_TYPE":"U","OBJECT_TYPE":"PAYLOAD","MEAN_MOTION_DOT":"-0.00000486","OBJECT_NAME":"STARLINK-2096","COUNTRY_CODE":"US","REF_FRAME":"TEME","INCLINATION":"53.0538","ARG_OF_PERICENTER":"61.1935","MEAN_MOTION":"15.06390618","OBJECT_ID":"2021-005AD","ECCENTRICITY":"0.00014590"},{"OBJECT_TYPE":"PAYLOAD","EPHEMERIS_TYPE":"0","CLASSIFICATION_TYPE":"U","CENTER_NAME":"EARTH","LAUNCH_DATE":"2021-01-20","MEAN_MOTION_DDOT":"0.0000000000000","SITE":"AFETR","ECCENTRICITY":"0.00014820","OBJECT_ID":"2021-005AE","MEAN_MOTION":"15.06396158","ARG_OF_PERICENTER":"71.9858","INCLINATION":"53.0527","REF_FRAME":"TEME","COUNTRY_CODE":"US","OBJECT_NAME":"STARLINK-2097","MEAN_MOTION_DOT":"-0.00000536","PERIAPSIS":"546.199","NORAD_CAT_ID":"47377","PERIOD":"95.592","EPOCH":"2022-07-26T11:30:50.549472","DECAY_DATE":null,"MEAN_ANOMALY":"288.1292","ELEMENT_SET_NO":"999","TLE_LINE1":"1 47377U 21005AE  22207.47975173 -.00000536  00000-0 -17097-4 0  9996","MEAN_ELEMENT_THEORY":"SGP4","FILE":"3522226","TIME_SYSTEM":"UTC","RCS_SIZE":"LARGE","RA_OF_ASC_NODE":"237.2593","APOAPSIS":"548.252","GP_ID":"208898246","REV_AT_EPOCH":"8375","BSTAR":"-0.00001709700000","TLE_LINE2":"2 47377  53.0527 237.2593 0001482  71.9858 288.1292 15.06396158 83755","SEMIMAJOR_AXIS":"6925.360"},{"REF_FRAME":"TEME","INCLINATION":"53.0545","COUNTRY_CODE":"US","OBJECT_NAME":"STARLINK-2098","MEAN_MOTION_DOT":"-0.00000693","OBJECT_ID":"2021-005AF","ECCENTRICITY":"0.00017270","ARG_OF_PERICENTER":"63.1772","MEAN_MOTION":"15.06391576","CENTER_NAME":"EARTH","LAUNCH_DATE":"2021-01-20","SITE":"AFETR","MEAN_MOTION_DDOT":"0.0000000000000","OBJECT_TYPE":"PAYLOAD","CLASSIFICATION_TYPE":"U","EPHEMERIS_TYPE":"0","BSTAR":"-0.00002765800000","REV_AT_EPOCH":"8429","SEMIMAJOR_AXIS":"6925.374","TLE_LINE2":"2 47378  53.0545 197.8894 0001727  63.1772 296.9393 15.06391576 84299","MEAN_ELEMENT_THEORY":"SGP4","RA_OF_ASC_NODE":"197.8894","RCS_SIZE":"LARGE","FILE":"3522226","TIME_SYSTEM":"UTC","GP_ID":"208898998","APOAPSIS":"548.435","MEAN_ANOMALY":"296.9393","ELEMENT_SET_NO":"999","TLE_LINE1":"1 47378U 21005AF  22207.33967744 -.00000693  00000-0 -27658-4 0  9995","PERIAPSIS":"546.043","PERIOD":"95.593","NORAD_CAT_ID":"47378","EPOCH":"2022-07-26T08:09:08.130816","DECAY_DATE":null},{"SEMIMAJOR_AXIS":"6925.362","TLE_LINE2":"2 47379  53.0547 197.8542 0001731  58.0808 302.0349 15.06395686 84296","REV_AT_EPOCH":"8429","BSTAR":"-0.00000178830000","APOAPSIS":"548.426","GP_ID":"208899739","TIME_SYSTEM":"UTC","FILE":"3522226","RA_OF_ASC_NODE":"197.8542","RCS_SIZE":"LARGE","MEAN_ELEMENT_THEORY":"SGP4","TLE_LINE1":"1 47379U 21005AG  22207.34704753 -.00000308  00000-0 -17883-5 0  9999","ELEMENT_SET_NO":"999","MEAN_ANOMALY":"302.0349","DECAY_DATE":null,"EPOCH":"2022-07-26T08:19:44.906592","NORAD_CAT_ID":"47379","PERIOD":"95.592","PERIAPSIS":"546.028","MEAN_MOTION_DOT":"-0.00000308","COUNTRY_CODE":"US","OBJECT_NAME":"STARLINK-2099","INCLINATION":"53.0547","REF_FRAME":"TEME","MEAN_MOTION":"15.06395686","ARG_OF_PERICENTER":"58.0808","ECCENTRICITY":"0.00017310","OBJECT_ID":"2021-005AG","SITE":"AFETR","MEAN_MOTION_DDOT":"0.0000000000000","LAUNCH_DATE":"2021-01-20","CENTER_NAME":"EARTH","EPHEMERIS_TYPE":"0","CLASSIFICATION_TYPE":"U","OBJECT_TYPE":"PAYLOAD"},{"REV_AT_EPOCH":"8417","BSTAR":"0.00011183000000","SEMIMAJOR_AXIS":"6925.337","TLE_LINE2":"2 47380  53.0529 207.4070 0001686  57.7062 302.4090 15.06403807 84178","FILE":"3522226","TIME_SYSTEM":"UTC","RCS_SIZE":"LARGE","RA_OF_ASC_NODE":"207.4070","APOAPSIS":"548.370","GP_ID":"208898496","MEAN_ELEMENT_THEORY":"SGP4","ELEMENT_SET_NO":"999","TLE_LINE1":"1 47380U 21005AH  22207.44196379  .00001385  00000-0  11183-3 0  9990","MEAN_ANOMALY":"302.4090","EPOCH":"2022-07-26T10:36:25.671456","DECAY_DATE":null,"PERIAPSIS":"546.034","NORAD_CAT_ID":"47380","PERIOD":"95.592","MEAN_MOTION_DOT":"0.00001385","INCLINATION":"53.0529","REF_FRAME":"TEME","OBJECT_NAME":"STARLINK-2100","COUNTRY_CODE":"US","ECCENTRICITY":"0.00016860","OBJECT_ID":"2021-005AH","MEAN_MOTION":"15.06403807","ARG_OF_PERICENTER":"57.7062","LAUNCH_DATE":"2021-01-20","MEAN_MOTION_DDOT":"0.0000000000000","SITE":"AFETR","CENTER_NAME":"EARTH","OBJECT_TYPE":"PAYLOAD","CLASSIFICATION_TYPE":"U","EPHEMERIS_TYPE":"0"},{"TLE_LINE2":"2 47381  53.0533 212.7275 0001924  52.3230 307.7934 15.06400730 84091","SEMIMAJOR_AXIS":"6925.346","BSTAR":"0.00013477000000","REV_AT_EPOCH":"8409","GP_ID":"208898746","APOAPSIS":"548.544","RCS_SIZE":"LARGE","RA_OF_ASC_NODE":"212.7275","FILE":"3522226","TIME_SYSTEM":"UTC","MEAN_ELEMENT_THEORY":"SGP4","TLE_LINE1":"1 47381U 21005AJ  22207.39173932  .00001726  00000-0  13477-3 0  9992","ELEMENT_SET_NO":"999","MEAN_ANOMALY":"307.7934","DECAY_DATE":null,"EPOCH":"2022-07-26T09:24:06.277248","PERIOD":"95.592","NORAD_CAT_ID":"47381","PERIAPSIS":"545.879","MEAN_MOTION_DOT":"0.00001726","COUNTRY_CODE":"US","OBJECT_NAME":"STARLINK-2101","REF_FRAME":"TEME","INCLINATION":"53.0533","ARG_OF_PERICENTER":"52.3230","MEAN_MOTION":"15.06400730","OBJECT_ID":"2021-005AJ","ECCENTRICITY":"0.00019240","MEAN_MOTION_DDOT":"0.0000000000000","SITE":"AFETR","LAUNCH_DATE":"2021-01-20","CENTER_NAME":"EARTH","CLASSIFICATION_TYPE":"U","EPHEMERIS_TYPE":"0","OBJECT_TYPE":"PAYLOAD"},{"SEMIMAJOR_AXIS":"6925.330","TLE_LINE2":"2 47382  53.0536 205.6745 0001601  66.9699 293.1459 15.06405919 84229","BSTAR":"0.00010247000000","REV_AT_EPOCH":"8422","MEAN_ELEMENT_THEORY":"SGP4","GP_ID":"208928056","APOAPSIS":"548.304","RA_OF_ASC_NODE":"205.6745","RCS_SIZE":"LARGE","FILE":"3522469","TIME_SYSTEM":"UTC","MEAN_ANOMALY":"293.1459","TLE_LINE1":"1 47382U 21005AK  22207.83267021  .00001245  00000-0  10247-3 0  9993","ELEMENT_SET_NO":"999","PERIOD":"95.592","NORAD_CAT_ID":"47382","PERIAPSIS":"546.087","DECAY_DATE":null,"EPOCH":"2022-07-26T19:59:02.706144","COUNTRY_CODE":"US","OBJECT_NAME":"STARLINK-2102","REF_FRAME":"TEME","INCLINATION":"53.0536","MEAN_MOTION_DOT":"0.00001245","ARG_OF_PERICENTER":"66.9699","MEAN_MOTION":"15.06405919","OBJECT_ID":"2021-005AK","ECCENTRICITY":"0.00016010","CENTER_NAME":"EARTH","MEAN_MOTION_DDOT":"0.0000000000000","SITE":"AFETR","LAUNCH_DATE":"2021-01-20","EPHEMERIS_TYPE":"0","CLASSIFICATION_TYPE":"U","OBJECT_TYPE":"PAYLOAD"},{"MEAN_MOTION_DOT":"0.00001218","REF_FRAME":"TEME","INCLINATION":"53.0530","OBJECT_NAME":"STARLINK-2103","COUNTRY_CODE":"US","OBJECT_ID":"2021-005AL","ECCENTRICITY":"0.00017230","ARG_OF_PERICENTER":"58.6344","MEAN_MOTION":"15.06393778","LAUNCH_DATE":"2021-01-20","SITE":"AFETR","MEAN_MOTION_DDOT":"0.0000000000000","CENTER_NAME":"EARTH","OBJECT_TYPE":"PAYLOAD","EPHEMERIS_TYPE":"0","CLASSIFICATION_TYPE":"U","BSTAR":"0.00010068000000","REV_AT_EPOCH":"8430","SEMIMAJOR_AXIS":"6925.368","TLE_LINE2":"2 47383  53.0530 197.6768 0001723  58.6344 301.4813 15.06393778 84304","RCS_SIZE":"LARGE","RA_OF_ASC_NODE":"197.6768","TIME_SYSTEM":"UTC","FILE":"3522226","GP_ID":"208899240","APOAPSIS":"548.426","MEAN_ELEMENT_THEORY":"SGP4","ELEMENT_SET_NO":"999","TLE_LINE1":"1 47383U 21005AL  22207.38664488  .00001218  00000-0  10068-3 0  9993","MEAN_ANOMALY":"301.4813","EPOCH":"2022-07-26T09:16:46.117632","DECAY_DATE":null,"PERIAPSIS":"546.039","PERIOD":"95.593","NORAD_CAT_ID":"47383"},{"OBJECT_ID":"2021-005AM","ECCENTRICITY":"0.00016940","ARG_OF_PERICENTER":"60.5258","MEAN_MOTION":"15.06394569","REF_FRAME":"TEME","INCLINATION":"53.0532","OBJECT_NAME":"STARLINK-2104","COUNTRY_CODE":"US","MEAN_MOTION_DOT":"-0.00000513","OBJECT_TYPE":"PAYLOAD","EPHEMERIS_TYPE":"0","CLASSIFICATION_TYPE":"U","CENTER_NAME":"EARTH","LAUNCH_DATE":"2021-01-20","MEAN_MOTION_DDOT":"0.0000000000000","SITE":"AFETR","MEAN_ELEMENT_THEORY":"SGP4","RCS_SIZE":"LARGE","RA_OF_ASC_NODE":"205.9712","FILE":"3522469","TIME_SYSTEM":"UTC","GP_ID":"208929058","APOAPSIS":"548.403","BSTAR":"-0.00001556000000","REV_AT_EPOCH":"8422","TLE_LINE2":"2 47384  53.0532 205.9712 0001694  60.5258 299.5900 15.06394569 84226","SEMIMAJOR_AXIS":"6925.365","PERIAPSIS":"546.057","PERIOD":"95.592","NORAD_CAT_ID":"47384","EPOCH":"2022-07-26T19:37:51.473568","DECAY_DATE":null,"MEAN_ANOMALY":"299.5900","ELEMENT_SET_NO":"999","TLE_LINE1":"1 47384U 21005AM  22207.81795687 -.00000513  00000-0 -15560-4 0  9990"}];
